ELEKTRO-L 3             
1 44903U 19095A   26159.50136477 -.00000080  00000+0  00000+0 0  9997
2 44903   0.2338  81.2027 0001437 351.4939  80.6371  1.00272553 23620
GONETS-M 14             
1 44905U 19096A   26159.51536816  .00000075  00000+0  46909-3 0  9997
2 44905  82.5231  90.0163 0013109 166.7483 193.3944 12.42869757292606
GONETS-M 15             
1 44906U 19096B   26159.54477697  .00000057  00000+0  34336-3 0  9993
2 44906  82.5250  90.4583 0014516 190.8009 169.2761 12.42871263292573
GONETS-M 16             
1 44907U 19096C   26159.49064345  .00000048  00000+0  27500-3 0  9995
2 44907  82.5196  89.4483 0009635 235.6634 124.3534 12.42891556292553
RS-44 & BREEZE-KM R/B   
1 44909U 19096E   26159.48340103  .00000024  00000+0  47655-4 0  9993
2 44909  82.5217 345.4899 0217776 164.4657 196.3271 12.79748665301231
JILIN-1 KUANFU 01       
1 45016U 20003A   26159.47612273  .00003367  00000+0  20710-3 0  9997
2 45016  97.5029 233.6017 0008976 341.4990  18.5913 15.10678229354013
XINGYUN-2 01            
1 45602U 20028A   26159.53748949  .00001938  00000+0  11733-3 0  9999
2 45602  97.4867 152.1099 0007577 227.9016 132.1571 15.11769054333536
XINGYUN-2 02            
1 45603U 20028B   26159.51458103  .00001663  00000+0  10193-3 0  9992
2 45603  97.5073 165.6590 0009567 308.5964  51.4409 15.11501825333523
HAIYANG-1D              
1 45721U 20036A   26159.53132396  .00000081  00000+0  44314-4 0  9993
2 45721  98.4553 101.3994 0002883 148.1780 211.9580 14.34170172313735
M2 PATHFINDER           
1 45727U 20037E   26159.46813308  .00002713  00000+0  19733-3 0  9991
2 45727  97.8161 350.6018 0011656 175.5768 184.5563 15.04639792324186
GAOFEN DUOMO (GFDM)     
1 45856U 20042A   26159.53519946  .00001021  00000+0  15211-3 0  9997
2 45856  97.7746 219.7358 0012420  99.1259 261.1357 14.76869686319738
ZIYUAN 3-03 (ZY 3-03)   
1 45939U 20051A   26159.50276841  .00003875  00000+0  17539-3 0  9994
2 45939  97.2836 227.5085 0004073 358.1007   2.0213 15.21464857326028
NEMO-HD                 
1 46277U 20061F   26159.51295734  .00010261  00000+0  22379-3 0  9999
2 46277  97.1922 221.5543 0002586  90.0806 270.0739 15.44418717320649
NAPA-1                  
1 46320U 20061BA  26159.54409536  .00068574  00000+0  64668-3 0  9995
2 46320  97.2465 233.4471 0001212 159.0981 201.0329 15.66847467320380
JILIN-1 GAOFEN 3E       
1 46457U 20065D   26159.45162300  .00053413  00000+0  59483-3 0  9990
2 46457  97.2258 211.8650 0012331 184.9172 175.1967 15.62595130318393
JILIN-1 GAOFEN 3F       
1 46458U 20065E   26159.46177003  .00044380  00000+0  54585-3 0  9999
2 46458  97.2211 209.2516 0013951 173.9609 186.1819 15.60019017318343
JILIN-1 GAOFEN 3G       
1 46459U 20065F   26159.48209998  .00090625  00000+0  75781-3 0  9995
2 46459  97.2281 215.9353 0010162  92.6497 267.5929 15.69666993318578
JILIN-1 GAOFEN 3H       
1 46460U 20065G   26159.49929399  .00077890  00000+0  74247-3 0  9997
2 46460  97.2226 212.3318 0004999  35.6284 324.5309 15.66533135318522
HAIYANG-2C              
1 46469U 20066A   26159.49041697  .00000021  00000+0  93137-4 0  9995
2 46469  65.9968 236.9368 0009242 238.4164 121.6002 13.83374559288295
HJ-2A                   
1 46478U 20067A   26159.49088315  .00000472  00000+0  74750-4 0  9994
2 46478  97.8822 238.0690 0002229 314.6613  45.4415 14.76601199306976
HJ-2B                   
1 46479U 20067B   26159.52797938  .00001102  00000+0  16523-3 0  9991
2 46479  97.8885 239.1193 0001167  92.2782 267.8562 14.76549288306986
GONETS-M 17             
1 46486U 20068A   26159.51565646  .00000085  00000+0  54442-3 0  9999
2 46486  82.4994 352.8983 0023376  55.5337 304.7947 12.42873039258089
GONETS-M 18             
1 46487U 20068B   26159.47931405  .00000039  00000+0  21071-3 0  9996
2 46487  82.4948 352.0423 0020633  52.3184 307.9763 12.42872915258069
GONETS-M 19             
1 46488U 20068C   26159.45485591  .00000069  00000+0  42491-3 0  9997
2 46488  82.4972 352.5062 0014463  67.1143 293.1462 12.42892089258161
DEKART                  
1 46493U 20068H   26159.48437345  .00010755  00000+0  29786-3 0  9995
2 46493  97.8746 168.1324 0007506 324.9065  35.1683 15.37151236314436
NORBI                   
1 46494U 20068J   26159.49664294  .00019508  00000+0  37354-3 0  9997
2 46494  97.8636 174.6977 0004532 289.9056  70.1705 15.48087618314862
SALSAT                  
1 46495U 20068K   26158.98778249  .00008175  00000+0  28698-3 0  9996
2 46495  97.8853 161.4934 0008911 345.1768  14.9208 15.29667638313959
