OBJECT_NAME,OBJECT_ID,EPOCH,MEAN_MOTION,ECCENTRICITY,INCLINATION,RA_OF_ASC_NODE,ARG_OF_PERICENTER,MEAN_ANOMALY,EPHEMERIS_TYPE,CLASSIFICATION_TYPE,NORAD_CAT_ID,ELEMENT_SET_NO,REV_AT_EPOCH,BSTAR,MEAN_MOTION_DOT,MEAN_MOTION_DDOT
ELEKTRO-L 3,2019-095A,2026-06-08T12:01:57.916128,1.00272553,.0001437,0.2338,81.2027,351.4939,80.6371,0,U,44903,999,2362,0,-.8E-6,0
GONETS-M 14,2019-096A,2026-06-08T12:22:07.809024,12.42869757,.0013109,82.5231,90.0163,166.7483,193.3944,0,U,44905,999,29260,.46909E-3,.75E-6,0
GONETS-M 15,2019-096B,2026-06-08T13:04:28.730208,12.42871263,.0014516,82.5250,90.4583,190.8009,169.2761,0,U,44906,999,29257,.34336E-3,.57E-6,0
GONETS-M 16,2019-096C,2026-06-08T11:46:31.594080,12.42891556,.0009635,82.5196,89.4483,235.6634,124.3534,0,U,44907,999,29255,.275E-3,.48E-6,0
RS-44 & BREEZE-KM R/B,2019-096E,2026-06-08T11:36:05.848992,12.79748665,.0217776,82.5217,345.4899,164.4657,196.3271,0,U,44909,999,30123,.47655E-4,.24E-6,0
JILIN-1 KUANFU 01,2020-003A,2026-06-08T11:25:37.003872,15.10678229,.0008976,97.5029,233.6017,341.4990,18.5913,0,U,45016,999,35401,.2071E-3,.3367E-4,0
XINGYUN-2 01,2020-028A,2026-06-08T12:53:59.091936,15.11769054,.0007577,97.4867,152.1099,227.9016,132.1571,0,U,45602,999,33353,.11733E-3,.1938E-4,0
XINGYUN-2 02,2020-028B,2026-06-08T12:20:59.800992,15.11501825,.0009567,97.5073,165.6590,308.5964,51.4409,0,U,45603,999,33352,.10193E-3,.1663E-4,0
HAIYANG-1D,2020-036A,2026-06-08T12:45:06.390144,14.34170172,.0002883,98.4553,101.3994,148.1780,211.9580,0,U,45721,999,31373,.44314E-4,.81E-6,0
M2 PATHFINDER,2020-037E,2026-06-08T11:14:06.698112,15.04639792,.0011656,97.8161,350.6018,175.5768,184.5563,0,U,45727,999,32418,.19733E-3,.2713E-4,0
GAOFEN DUOMO (GFDM),2020-042A,2026-06-08T12:50:41.233344,14.76869686,.001242,97.7746,219.7358,99.1259,261.1357,0,U,45856,999,31973,.15211E-3,.1021E-4,0
ZIYUAN 3-03 (ZY 3-03),2020-051A,2026-06-08T12:03:59.190624,15.21464857,.0004073,97.2836,227.5085,358.1007,2.0213,0,U,45939,999,32602,.17539E-3,.3875E-4,0
NEMO-HD,2020-061F,2026-06-08T12:18:39.514176,15.44418717,.0002586,97.1922,221.5543,90.0806,270.0739,0,U,46277,999,32064,.22379E-3,.10261E-3,0
NAPA-1,2020-061BA,2026-06-08T13:03:29.839104,15.66847467,.0001212,97.2465,233.4471,159.0981,201.0329,0,U,46320,999,32038,.64668E-3,.68574E-3,0
JILIN-1 GAOFEN 3E,2020-065D,2026-06-08T10:50:20.227200,15.62595130,.0012331,97.2258,211.8650,184.9172,175.1967,0,U,46457,999,31839,.59483E-3,.53413E-3,0
JILIN-1 GAOFEN 3F,2020-065E,2026-06-08T11:04:56.930592,15.60019017,.0013951,97.2211,209.2516,173.9609,186.1819,0,U,46458,999,31834,.54585E-3,.4438E-3,0
JILIN-1 GAOFEN 3G,2020-065F,2026-06-08T11:34:13.438272,15.69666993,.0010162,97.2281,215.9353,92.6497,267.5929,0,U,46459,999,31857,.75781E-3,.90625E-3,0
JILIN-1 GAOFEN 3H,2020-065G,2026-06-08T11:58:59.000736,15.66533135,.0004999,97.2226,212.3318,35.6284,324.5309,0,U,46460,999,31852,.74247E-3,.7789E-3,0
HAIYANG-2C,2020-066A,2026-06-08T11:46:12.026208,13.83374559,.0009242,65.9968,236.9368,238.4164,121.6002,0,U,46469,999,28829,.93137E-4,.21E-6,0
HJ-2A,2020-067A,2026-06-08T11:46:52.304160,14.76601199,.0002229,97.8822,238.0690,314.6613,45.4415,0,U,46478,999,30697,.7475E-4,.472E-5,0
HJ-2B,2020-067B,2026-06-08T12:40:17.418432,14.76549288,.0001167,97.8885,239.1193,92.2782,267.8562,0,U,46479,999,30698,.16523E-3,.1102E-4,0
GONETS-M 17,2020-068A,2026-06-08T12:22:32.718144,12.42873039,.0023376,82.4994,352.8983,55.5337,304.7947,0,U,46486,999,25808,.54442E-3,.85E-6,0
GONETS-M 18,2020-068B,2026-06-08T11:30:12.733920,12.42872915,.0020633,82.4948,352.0423,52.3184,307.9763,0,U,46487,999,25806,.21071E-3,.39E-6,0
GONETS-M 19,2020-068C,2026-06-08T10:54:59.550624,12.42892089,.0014463,82.4972,352.5062,67.1143,293.1462,0,U,46488,999,25816,.42491E-3,.69E-6,0
DEKART,2020-068H,2026-06-08T11:37:29.866080,15.37151236,.0007506,97.8746,168.1324,324.9065,35.1683,0,U,46493,999,31443,.29786E-3,.10755E-3,0
NORBI,2020-068J,2026-06-08T11:55:09.950016,15.48087618,.0004532,97.8636,174.6977,289.9056,70.1705,0,U,46494,999,31486,.37354E-3,.19508E-3,0
SALSAT,2020-068K,2026-06-07T23:42:24.407136,15.29667638,.00089117,97.8853,161.4934,345.1768,14.9208,0,U,46495,999,31395,.28698063E-3,.8175E-4,0
